{"fetched_at":"2026-07-08T07:03:56.164Z","source":"https://celestrak.org/NORAD/elements/gp.php?NAME=GLOBAL&FORMAT=JSON","constellation":"blacksky-gen3","records":[{"OBJECT_NAME":"GLOBAL-31","OBJECT_ID":"2025-033B","EPOCH":"2026-07-07T14:05:40.477056","CLASSIFICATION_TYPE":"U","MEAN_MOTION":15.38214191,"ECCENTRICITY":0.0011251,"INCLINATION":58.9974,"RA_OF_ASC_NODE":233.7088,"ARG_OF_PERICENTER":53.3171,"MEAN_ANOMALY":306.8937,"EPHEMERIS_TYPE":0,"NORAD_CAT_ID":63027,"ELEMENT_SET_NO":999,"REV_AT_EPOCH":7746,"BSTAR":0.00019469,"MEAN_MOTION_DOT":0.00007076,"MEAN_MOTION_DDOT":0},{"OBJECT_NAME":"GLOBAL-32","OBJECT_ID":"2025-118B","EPOCH":"2026-07-07T17:25:05.347776","CLASSIFICATION_TYPE":"U","MEAN_MOTION":15.39151527,"ECCENTRICITY":0.0015839,"INCLINATION":58.9936,"RA_OF_ASC_NODE":49.4037,"ARG_OF_PERICENTER":56.5791,"MEAN_ANOMALY":303.6798,"EPHEMERIS_TYPE":0,"NORAD_CAT_ID":64231,"ELEMENT_SET_NO":999,"REV_AT_EPOCH":6140,"BSTAR":0.00023991,"MEAN_MOTION_DOT":0.00009101,"MEAN_MOTION_DDOT":0},{"OBJECT_NAME":"GLOBAL-33","OBJECT_ID":"2025-267A","EPOCH":"2026-07-07T07:34:24.985344","CLASSIFICATION_TYPE":"U","MEAN_MOTION":15.3719201,"ECCENTRICITY":0.00086988,"INCLINATION":42.0199,"RA_OF_ASC_NODE":299.1518,"ARG_OF_PERICENTER":27.899,"MEAN_ANOMALY":332.2315,"EPHEMERIS_TYPE":0,"NORAD_CAT_ID":66554,"ELEMENT_SET_NO":999,"REV_AT_EPOCH":3514,"BSTAR":0.00025437449,"MEAN_MOTION_DOT":0.00009227,"MEAN_MOTION_DDOT":0},{"OBJECT_NAME":"GLOBAL-34","OBJECT_ID":"2026-043A","EPOCH":"2026-07-07T03:51:27.531648","CLASSIFICATION_TYPE":"U","MEAN_MOTION":15.33000245,"ECCENTRICITY":0.00016785,"INCLINATION":42.021,"RA_OF_ASC_NODE":105.2579,"ARG_OF_PERICENTER":35.7741,"MEAN_ANOMALY":324.3209,"EPHEMERIS_TYPE":0,"NORAD_CAT_ID":68098,"ELEMENT_SET_NO":999,"REV_AT_EPOCH":1889,"BSTAR":0.00025286108,"MEAN_MOTION_DOT":0.0000799,"MEAN_MOTION_DDOT":0}]}
