GLOBAL-31               
1 63027U 25033B   26188.58727404  .00007076  00000+0  19469-3 0  9994
2 63027  58.9974 233.7088 0011251  53.3171 306.8937 15.38214191 77468
GLOBAL-32               
1 64231U 25118B   26188.72575634  .00009101  00000+0  23991-3 0  9994
2 64231  58.9936  49.4037 0015839  56.5791 303.6798 15.39151527 61400
GLOBAL-33               
1 66554U 25267A   26188.31556696  .00009227  00000+0  25437-3 0  9997
2 66554  42.0199 299.1518 0008698  27.8990 332.2315 15.37192010 35145
GLOBAL-34               
1 68098U 26043A   26188.16073532  .00007990  00000+0  25286-3 0  9998
2 68098  42.0210 105.2579 0001678  35.7741 324.3209 15.33000245 18892
